1 39150U 13018A   25355.51185171  .00001021  00000+0  15345-3 0  9994
2 39150  97.9323  66.0166 0018442 116.3583 243.9523 14.76495587682026
